HAWK-C                  
1 43799U 18099AT  26068.67261865  .00009431  00000+0  35663-3 0  9994
2 43799  97.4027 122.6817 0040363 277.4052  82.2601 15.26407167398720
STARLINK-31188          
1 58804U 24012T   26068.29028085  .00000352  00000+0  22320-4 0  9992
2 58804  43.0029 167.6084 0001001 257.2675 102.8065 15.27570984121175
